     2.10           G: GLONASS NAV DATA                     RINEX VERSION / TYPE
teqc  2015Jun23                         20211224 01:25:41UTCPGM / RUN BY / DATE
Linux 2.4.21-27.ELsmp|Opteron|gcc -static|Linux x86_64|=+   COMMENT
  2021    11    30   -4.656612873077D-10                    CORR TO SYSTEM TIME
                                                            END OF HEADER
15 21 12  1  9 15  0.0 9.987503290176D-05-0.000000000000D+00 3.240000000000D+04
    1.438096240234D+04-9.970378875732D-01 2.793967723846D-09 0.000000000000D+00
    1.837157324219D+04-1.007678985596D+00-9.313225746155D-10 0.000000000000D+00
    1.032817187500D+04 3.186987876892D+00-2.793967723846D-09 0.000000000000D+00
 2 21 12  1  9 15  0.0 5.018683150411D-04 0.000000000000D+00 3.240000000000D+04
   -1.137007519531D+04 5.578937530518D-01-0.000000000000D+00 0.000000000000D+00
    1.276001269531D+04-2.536491394043D+00-9.313225746155D-10-4.000000000000D+00
   -1.887385839844D+04-2.053294181824D+00 2.793967723846D-09 0.000000000000D+00
 3 21 12  1  9 15  0.0 4.739407449961D-05 0.000000000000D+00 3.240000000000D+04
   -6.262114746094D+03 2.525739669800D-01-0.000000000000D+00 0.000000000000D+00
    2.433660888672D+04-5.400114059448D-01-1.862645149231D-09 5.000000000000D+00
   -4.158322753906D+03-3.516069412231D+00 0.000000000000D+00 0.000000000000D+00
 4 21 12  1  9 15  0.0 1.168046146631D-04 1.818989403546D-12 3.240000000000D+04
    2.097243164062D+03-1.541509628296D-01 0.000000000000D+00 0.000000000000D+00
    2.204320166016D+04 1.732404708862D+00-1.862645149231D-09 6.000000000000D+00
    1.267069921875D+04-2.994089126587D+00-1.862645149231D-09 0.000000000000D+00
14 21 12  1  9 15  0.0 7.158052176237D-05 0.000000000000D+00 3.240000000000D+04
   -2.694941406250D+02-2.264613151550D+00-9.313225746155D-10 0.000000000000D+00
    1.337531250000D+04-1.924006462097D+00-1.862645149231D-09-7.000000000000D+00
    2.173233935547D+04 1.155598640442D+00-2.793967723846D-09 0.000000000000D+00
17 21 12  1  9 15  0.0 4.796879366040D-04 2.728484105319D-12 3.240000000000D+04
   -1.351719238281D+04-2.165014266968D+00-9.313225746155D-10 0.000000000000D+00
    1.315788476562D+04 9.428815841675D-01-9.313225746155D-10 4.000000000000D+00
   -1.717978222656D+04 2.419444084167D+00 1.862645149231D-09 0.000000000000D+00
24 21 12  1  9 15  0.0 6.928015500307D-05 1.818989403546D-12 3.240000000000D+04
   -2.387393066406D+04-1.187295913696D-01-3.725290298462D-09 0.000000000000D+00
    8.907319824219D+03 2.368164062500D-01-1.862645149231D-09 2.000000000000D+00
   -1.360827636719D+03 3.572546958923D+00 9.313225746155D-10 0.000000000000D+00
18 21 12  1  9 15  0.0 9.901076555252D-05 9.094947017729D-13 3.402000000000D+04
    3.705337890625D+03-3.014310836792D+00 1.862645149231D-09 0.000000000000D+00
    9.756927246094D+03 1.058286666870D+00-0.000000000000D+00-3.000000000000D+00
   -2.325482714844D+04-3.214550018311D-02 1.862645149231D-09 0.000000000000D+00
 4 21 12  1  9 45  0.0 1.168074086308D-04 1.818989403546D-12 3.420000000000D+04
    2.107883300781D+03 1.313018798828D-01-0.000000000000D+00 0.000000000000D+00
    2.447573876953D+04 9.440927505493D-01-1.862645149231D-09 6.000000000000D+00
    6.861191894531D+03-3.419054031372D+00-9.313225746155D-10 0.000000000000D+00
15 21 12  1  9 45  0.0 9.987503290176D-05-0.000000000000D+00 3.420000000000D+04
    1.191176269531D+04-1.742428779602D+00 0.000000000000D+00 0.000000000000D+00
    1.631626806641D+04-1.231662750244D+00-1.862645149231D-09 0.000000000000D+00
    1.559177148438D+04 2.623573303223D+00-2.793967723846D-09 0.000000000000D+00
 2 21 12  1  9 45  0.0 5.018692463636D-04 0.000000000000D+00 3.420000000000D+04
   -1.066803417969D+04 1.982860565186D-01-9.313225746155D-10 0.000000000000D+00
    7.747743652344D+03-2.988506317139D+00-0.000000000000D+00-4.000000000000D+00
   -2.178841894531D+04-1.164072036743D+00 2.793967723846D-09 0.000000000000D+00
 3 21 12  1  9 45  0.0 4.739500582218D-05 0.000000000000D+00 3.420000000000D+04
   -5.818311035156D+03 2.001581192017D-01-0.000000000000D+00 0.000000000000D+00
    2.257652343750D+04-1.403487205505D+00-1.862645149231D-09 5.000000000000D+00
   -1.024355810547D+04-3.201152801514D+00 9.313225746155D-10 0.000000000000D+00
17 21 12  1  9 45  0.0 4.796944558620D-04 2.728484105319D-12 3.420000000000D+04
   -1.674160498047D+04-1.399694442749D+00-2.793967723846D-09 0.000000000000D+00
    1.489305615234D+04 9.418296813965D-01-9.313225746155D-10 4.000000000000D+00
   -1.221751220703D+04 3.058351516724D+00 1.862645149231D-09 0.000000000000D+00
18 21 12  1  9 45  0.0 9.901262819767D-05 9.094947017729D-13 3.420000000000D+04
   -1.495034179688D+03-2.717336654663D+00 9.313225746155D-10 0.000000000000D+00
    1.203852001953D+04 1.450860023499D+00-9.313225746155D-10-3.000000000000D+00
   -2.241095166016D+04 9.638032913208D-01 1.862645149231D-09 0.000000000000D+00
24 21 12  1  9 45  0.0 6.928388029337D-05 1.818989403546D-12 3.420000000000D+04
   -2.333708447266D+04 6.953601837158D-01-4.656612873077D-09 0.000000000000D+00
    9.022996582031D+03-1.446247100830D-01-9.313225746155D-10 2.000000000000D+00
    5.039330078125D+03 3.492629051208D+00 9.313225746155D-10 0.000000000000D+00
14 21 12  1  9 45  0.0 7.158145308495D-05 0.000000000000D+00 3.447000000000D+04
   -4.733025878906D+03-2.658508300781D+00-2.793967723846D-09 0.000000000000D+00
    1.011212158203D+04-1.666172981262D+00-9.313225746155D-10-7.000000000000D+00
    2.294672509766D+04 1.849565505981D-01-1.862645149231D-09 0.000000000000D+00
 5 21 12  1  9 45  0.0 8.343253284693D-05 9.094947017729D-13 3.507000000000D+04
    8.843623535156D+03-4.398345947266D-02 0.000000000000D+00 0.000000000000D+00
    1.285033398438D+04 2.764802932739D+00-9.313225746155D-10 1.000000000000D+00
    2.017587695312D+04-1.744459152222D+00-2.793967723846D-09 0.000000000000D+00
 4 21 12  1 10 15  0.0 1.168102025986D-04 1.818989403546D-12 3.600000000000D+04
    2.431200683594D+03 1.869888305664D-01-0.000000000000D+00 0.000000000000D+00
    2.537980859375D+04 5.278205871582D-02-1.862645149231D-09 6.000000000000D+00
    5.210644531250D+02-3.579774856567D+00-0.000000000000D+00 0.000000000000D+00
 5 21 12  1 10 15  0.0 8.343346416950D-05 9.094947017729D-13 3.600000000000D+04
    9.110111816406D+03 3.143787384033D-01-0.000000000000D+00 0.000000000000D+00
    1.736849365234D+04 2.214163780212D+00-1.862645149231D-09 1.000000000000D+00
    1.629596289062D+04-2.538614273071D+00-1.862645149231D-09 0.000000000000D+00
15 21 12  1 10 15  0.0 9.987503290176D-05-0.000000000000D+00 3.600000000000D+04
    8.157041015625D+03-2.406757354736D+00-9.313225746155D-10 0.000000000000D+00
    1.409512060547D+04-1.194603919983D+00-9.313225746155D-10 0.000000000000D+00
    1.965138525391D+04 1.857929229736D+00-2.793967723846D-09 0.000000000000D+00
 3 21 12  1 10 15  0.0 4.739500582218D-05 0.000000000000D+00 3.600000000000D+04
   -5.676277343750D+03-7.539653778076D-02-9.313225746155D-10 0.000000000000D+00
    1.936156738281D+04-2.138425827026D+00-9.313225746155D-10 5.000000000000D+00
   -1.553271923828D+04-2.637312889099D+00 1.862645149231D-09 0.000000000000D+00
17 21 12  1 10 15  0.0 4.797000437975D-04 2.728484105319D-12 3.600000000000D+04
   -1.852664990234D+04-5.854396820068D-01-3.725290298462D-09 0.000000000000D+00
    1.638847412109D+04 6.756925582886D-01-0.000000000000D+00 4.000000000000D+00
   -6.311964355469D+03 3.460795402527D+00 1.862645149231D-09 0.000000000000D+00
18 21 12  1 10 15  0.0 9.901449084282D-05 9.094947017729D-13 3.600000000000D+04
   -5.930723144531D+03-2.177669525146D+00-0.000000000000D+00 0.000000000000D+00
    1.485994824219D+04 1.644398689270D+00-9.313225746155D-10-3.000000000000D+00
   -1.982971093750D+04 1.885647773743D+00 1.862645149231D-09 0.000000000000D+00
24 21 12  1 10 15  0.0 6.928760558367D-05 1.818989403546D-12 3.600000000000D+04
   -2.147181884766D+04 1.341795921326D+00-5.587935447693D-09 0.000000000000D+00
    8.275660644531D+03-7.098951339722D-01-0.000000000000D+00 2.000000000000D+00
    1.105052294922D+04 3.143218040466D+00 0.000000000000D+00 0.000000000000D+00
 4 21 12  1 10 45  0.0 1.168129965663D-04 1.818989403546D-12 3.780000000000D+04
    2.633156738281D+03-2.255439758301D-03-9.313225746155D-10 0.000000000000D+00
    2.467408056641D+04-8.247404098511D-01-1.862645149231D-09 6.000000000000D+00
   -5.859341308594D+03-3.463461875916D+00 0.000000000000D+00 0.000000000000D+00
 5 21 12  1 10 45  0.0 8.343439549208D-05 9.094947017729D-13 3.780000000000D+04
    9.859706542969D+03 4.811248779297D-01-0.000000000000D+00 0.000000000000D+00
    2.069824462891D+04 1.459429740906D+00-1.862645149231D-09 1.000000000000D+00
    1.115484472656D+04-3.136646270752D+00-1.862645149231D-09 0.000000000000D+00
15 21 12  1 10 45  0.0 9.987503290176D-05 0.000000000000D+00 3.780000000000D+04
    3.358974121094D+03-2.886075019836D+00-1.862645149231D-09 0.000000000000D+00
    1.215055810547D+04-9.340457916260D-01-9.313225746155D-10 0.000000000000D+00
    2.219427050781D+04 9.492425918579D-01-1.862645149231D-09 0.000000000000D+00
 3 21 12  1 10 45  0.0 4.739500582218D-05 0.000000000000D+00 3.780000000000D+04
   -6.186266113281D+03-5.107917785645D-01-9.313225746155D-10 0.000000000000D+00
    1.501352490234D+04-2.648987770081D+00-0.000000000000D+00 5.000000000000D+00
   -1.961458300781D+04-1.868515968323D+00 2.793967723846D-09 0.000000000000D+00
17 21 12  1 10 45  0.0 4.797065630555D-04 2.728484105319D-12 3.780000000000D+04
   -1.889020751953D+04 1.609573364258D-01-4.656612873077D-09 0.000000000000D+00
    1.717676318359D+04 1.630668640137D-01 0.000000000000D+00 4.000000000000D+00
    8.063378906250D+01 3.596067428589D+00 9.313225746155D-10 0.000000000000D+00
18 21 12  1 10 45  0.0 9.901635348797D-05 0.000000000000D+00 3.780000000000D+04
   -9.244773437500D+03-1.488910675049D+00-1.862645149231D-09 0.000000000000D+00
    1.779994091797D+04 1.575391769409D+00-0.000000000000D+00-3.000000000000D+00
   -1.571037744141D+04 2.661607742310D+00 1.862645149231D-09 0.000000000000D+00
